{"type":"FeatureCollection","features":[{"type":"Feature","id":"befolkning_1km_2025.1822","geometry":{"type":"Polygon","coordinates":[[[13.32903004,55.3319238],[13.32865189,55.34090595],[13.3444119,55.34112052],[13.34478649,55.33213829],[13.32903004,55.3319238]]]},"geometry_name":"sp_geometry","properties":{"objectid":1822,"rutid_inspire":"SE_CRS3006RES1000mN6133000E394000","rutid_scb":"3940006133000","rutstorl":1000,"beftotalt":7,"man":4,"kvinna":4,"ald0_4":0,"ald5_9":3,"ald10_14":0,"ald15_19":3,"ald20_24":0,"ald25_29":0,"ald30_34":0,"ald35_39":0,"ald40_44":0,"ald45_49":3,"ald50_54":0,"ald55_59":0,"ald60_64":0,"ald65_69":0,"ald70_74":3,"ald75_79":0,"ald80_84":0,"ald85_89":0,"ald90_94":0,"ald95_99":0,"ald100w":0,"referenstid":"20251231"}},{"type":"Feature","id":"befolkning_1km_2025.1823","geometry":{"type":"Polygon","coordinates":[[[13.34478649,55.33213829],[13.3444119,55.34112052],[13.36017213,55.34133305],[13.36054315,55.33235075],[13.34478649,55.33213829]]]},"geometry_name":"sp_geometry","properties":{"objectid":1823,"rutid_inspire":"SE_CRS3006RES1000mN6133000E395000","rutid_scb":"3950006133000","rutstorl":1000,"beftotalt":22,"man":10,"kvinna":8,"ald0_4":0,"ald5_9":3,"ald10_14":0,"ald15_19":3,"ald20_24":0,"ald25_29":0,"ald30_34":3,"ald35_39":0,"ald40_44":3,"ald45_49":3,"ald50_54":0,"ald55_59":0,"ald60_64":0,"ald65_69":3,"ald70_74":0,"ald75_79":3,"ald80_84":0,"ald85_89":0,"ald90_94":0,"ald95_99":0,"ald100w":0,"referenstid":"20251231"}},{"type":"Feature","id":"befolkning_1km_2025.1824","geometry":{"type":"Polygon","coordinates":[[[13.36054315,55.33235075],[13.36017213,55.34133305],[13.37593256,55.34154355],[13.37630002,55.33256118],[13.36054315,55.33235075]]]},"geometry_name":"sp_geometry","properties":{"objectid":1824,"rutid_inspire":"SE_CRS3006RES1000mN6133000E396000","rutid_scb":"3960006133000","rutstorl":1000,"beftotalt":7,"man":4,"kvinna":3,"ald0_4":0,"ald5_9":0,"ald10_14":0,"ald15_19":0,"ald20_24":0,"ald25_29":0,"ald30_34":3,"ald35_39":0,"ald40_44":3,"ald45_49":0,"ald50_54":0,"ald55_59":0,"ald60_64":0,"ald65_69":3,"ald70_74":0,"ald75_79":0,"ald80_84":3,"ald85_89":0,"ald90_94":0,"ald95_99":0,"ald100w":0,"referenstid":"20251231"}}],"totalFeatures":115118,"numberMatched":115118,"numberReturned":3,"timeStamp":"2026-09-20T00:26:23.944Z","links":[{"title":"next page","type":"application/json","rel":"next","href":"https://geodata.scb.se/geoserver/stat/wfs?REQUEST=GetFeature&SRSNAME=EPSG%3A4326&OUTPUTFORMAT=application%2Fjson&VERSION=2.0.0&TYPENAMES=stat%3Abefolkning_1km_2025&COUNT=3&SERVICE=WFS&STARTINDEX=3"}],"crs":{"type":"name","properties":{"name":"urn:ogc:def:crs:EPSG::4326"}}}